[
    {
        "OBJECT_NAME": "SL-3 R/B",
        "OBJECT_ID": "1983-010B",
        "EPOCH": "2026-04-16T20:36:13.365792",
        "MEAN_MOTION": 15.47539239,
        "ECCENTRICITY": 0.0015009,
        "INCLINATION": 81.1012,
        "RA_OF_ASC_NODE": 315.4052,
        "ARG_OF_PERICENTER": 274.5205,
        "MEAN_ANOMALY": 85.4326,
        "EPHEMERIS_TYPE": 0,
        "CLASSIFICATION_TYPE": "U",
        "NORAD_CAT_ID": 13819,
        "ELEMENT_SET_NO": 999,
        "REV_AT_EPOCH": 36384,
        "BSTAR": 0.00015434,
        "MEAN_MOTION_DOT": 8.002e-05,
        "MEAN_MOTION_DDOT": 0
    },
    {
        "OBJECT_NAME": "SL-3 R/B",
        "OBJECT_ID": "1983-075B",
        "EPOCH": "2026-04-16T18:59:43.254240",
        "MEAN_MOTION": 15.39300106,
        "ECCENTRICITY": 0.0023254,
        "INCLINATION": 97.6128,
        "RA_OF_ASC_NODE": 112.839,
        "ARG_OF_PERICENTER": 93.5885,
        "MEAN_ANOMALY": 266.8019,
        "EPHEMERIS_TYPE": 0,
        "CLASSIFICATION_TYPE": "U",
        "NORAD_CAT_ID": 14208,
        "ELEMENT_SET_NO": 999,
        "REV_AT_EPOCH": 33601,
        "BSTAR": 0.00017456,
        "MEAN_MOTION_DOT": 6.779e-05,
        "MEAN_MOTION_DDOT": 0
    },
    {
        "OBJECT_NAME": "COSMOS 1536",
        "OBJECT_ID": "1984-013A",
        "EPOCH": "2026-04-16T14:28:02.997408",
        "MEAN_MOTION": 15.24345804,
        "ECCENTRICITY": 0.0015489,
        "INCLINATION": 82.5435,
        "RA_OF_ASC_NODE": 70.1378,
        "ARG_OF_PERICENTER": 142.5523,
        "MEAN_ANOMALY": 217.6796,
        "EPHEMERIS_TYPE": 0,
        "CLASSIFICATION_TYPE": "U",
        "NORAD_CAT_ID": 14699,
        "ELEMENT_SET_NO": 999,
        "REV_AT_EPOCH": 27839,
        "BSTAR": 0.00015408,
        "MEAN_MOTION_DOT": 3.815e-05,
        "MEAN_MOTION_DDOT": 0
    },
    {
        "OBJECT_NAME": "SL-14 R/B",
        "OBJECT_ID": "1984-027B",
        "EPOCH": "2026-04-16T17:43:09.037920",
        "MEAN_MOTION": 14.86016501,
        "ECCENTRICITY": 0.0017378,
        "INCLINATION": 82.5441,
        "RA_OF_ASC_NODE": 209.3318,
        "ARG_OF_PERICENTER": 202.9423,
        "MEAN_ANOMALY": 157.1019,
        "EPHEMERIS_TYPE": 0,
        "CLASSIFICATION_TYPE": "U",
        "NORAD_CAT_ID": 14820,
        "ELEMENT_SET_NO": 999,
        "REV_AT_EPOCH": 25328,
        "BSTAR": 2.8293e-05,
        "MEAN_MOTION_DOT": 2.72e-06,
        "MEAN_MOTION_DDOT": 0
    },
    {
        "OBJECT_NAME": "SL-8 R/B",
        "OBJECT_ID": "1985-006B",
        "EPOCH": "2026-04-16T14:04:42.043008",
        "MEAN_MOTION": 14.37808052,
        "ECCENTRICITY": 0.0017212,
        "INCLINATION": 74.0463,
        "RA_OF_ASC_NODE": 191.4157,
        "ARG_OF_PERICENTER": 96.9115,
        "MEAN_ANOMALY": 6.2774,
        "EPHEMERIS_TYPE": 0,
        "CLASSIFICATION_TYPE": "U",
        "NORAD_CAT_ID": 15483,
        "ELEMENT_SET_NO": 999,
        "REV_AT_EPOCH": 15947,
        "BSTAR": 4.9112e-05,
        "MEAN_MOTION_DOT": 1.22e-06,
        "MEAN_MOTION_DDOT": 0
    },
    {
        "OBJECT_NAME": "SL-12 R/B(2)",
        "OBJECT_ID": "1985-042D",
        "EPOCH": "2026-04-16T11:47:43.936800",
        "MEAN_MOTION": 14.21993166,
        "ECCENTRICITY": 0.0033133,
        "INCLINATION": 71.1105,
        "RA_OF_ASC_NODE": 7.8648,
        "ARG_OF_PERICENTER": 65.4156,
        "MEAN_ANOMALY": 107.1999,
        "EPHEMERIS_TYPE": 0,
        "CLASSIFICATION_TYPE": "U",
        "NORAD_CAT_ID": 15772,
        "ELEMENT_SET_NO": 999,
        "REV_AT_EPOCH": 11976,
        "BSTAR": 4.3352e-05,
        "MEAN_MOTION_DOT": 4.9e-07,
        "MEAN_MOTION_DDOT": 0
    },
    {
        "OBJECT_NAME": "SL-14 R/B",
        "OBJECT_ID": "1985-069B",
        "EPOCH": "2026-04-16T04:09:00.442656",
        "MEAN_MOTION": 14.86471441,
        "ECCENTRICITY": 0.00202721,
        "INCLINATION": 82.529,
        "RA_OF_ASC_NODE": 349.6967,
        "ARG_OF_PERICENTER": 69.8909,
        "MEAN_ANOMALY": 290.4487,
        "EPHEMERIS_TYPE": 0,
        "CLASSIFICATION_TYPE": "U",
        "NORAD_CAT_ID": 15945,
        "ELEMENT_SET_NO": 999,
        "REV_AT_EPOCH": 17840,
        "BSTAR": 2.6408715e-05,
        "MEAN_MOTION_DOT": 2.59e-06,
        "MEAN_MOTION_DDOT": 0
    },
    {
        "OBJECT_NAME": "SL-16 R/B",
        "OBJECT_ID": "1985-097B",
        "EPOCH": "2026-04-16T15:28:42.864384",
        "MEAN_MOTION": 14.16606259,
        "ECCENTRICITY": 0.0008552,
        "INCLINATION": 71.0032,
        "RA_OF_ASC_NODE": 60.6425,
        "ARG_OF_PERICENTER": 213.3013,
        "MEAN_ANOMALY": 319.1399,
        "EPHEMERIS_TYPE": 0,
        "CLASSIFICATION_TYPE": "U",
        "NORAD_CAT_ID": 16182,
        "ELEMENT_SET_NO": 999,
        "REV_AT_EPOCH": 9260,
        "BSTAR": 0.00010659,
        "MEAN_MOTION_DOT": 1.65e-06,
        "MEAN_MOTION_DDOT": 0
    },
    {
        "OBJECT_NAME": "SL-14 R/B",
        "OBJECT_ID": "1986-006B",
        "EPOCH": "2026-04-16T17:54:10.766016",
        "MEAN_MOTION": 14.86880636,
        "ECCENTRICITY": 0.007737,
        "INCLINATION": 82.5282,
        "RA_OF_ASC_NODE": 223.9186,
        "ARG_OF_PERICENTER": 145.6531,
        "MEAN_ANOMALY": 214.9724,
        "EPHEMERIS_TYPE": 0,
        "CLASSIFICATION_TYPE": "U",
        "NORAD_CAT_ID": 16496,
        "ELEMENT_SET_NO": 999,
        "REV_AT_EPOCH": 15486,
        "BSTAR": 5.0848e-05,
        "MEAN_MOTION_DOT": 5.07e-06,
        "MEAN_MOTION_DDOT": 0
    },
    {
        "OBJECT_NAME": "COSMOS 1743",
        "OBJECT_ID": "1986-034A",
        "EPOCH": "2026-04-16T05:25:50.284416",
        "MEAN_MOTION": 15.61886544,
        "ECCENTRICITY": 0.0007061,
        "INCLINATION": 82.5316,
        "RA_OF_ASC_NODE": 34.3377,
        "ARG_OF_PERICENTER": 125.2745,
        "MEAN_ANOMALY": 234.9174,
        "EPHEMERIS_TYPE": 0,
        "CLASSIFICATION_TYPE": "U",
        "NORAD_CAT_ID": 16719,
        "ELEMENT_SET_NO": 999,
        "REV_AT_EPOCH": 18610,
        "BSTAR": 0.00034277,
        "MEAN_MOTION_DOT": 0.0002988,
        "MEAN_MOTION_DDOT": 0
    },
    {
        "OBJECT_NAME": "SL-14 R/B",
        "OBJECT_ID": "1986-046B",
        "EPOCH": "2026-04-16T19:04:55.985952",
        "MEAN_MOTION": 14.85628011,
        "ECCENTRICITY": 0.0024677,
        "INCLINATION": 82.4836,
        "RA_OF_ASC_NODE": 44.1747,
        "ARG_OF_PERICENTER": 101.2581,
        "MEAN_ANOMALY": 259.1411,
        "EPHEMERIS_TYPE": 0,
        "CLASSIFICATION_TYPE": "U",
        "NORAD_CAT_ID": 16792,
        "ELEMENT_SET_NO": 999,
        "REV_AT_EPOCH": 13206,
        "BSTAR": 2.8413e-05,
        "MEAN_MOTION_DOT": 2.72e-06,
        "MEAN_MOTION_DDOT": 0
    },
    {
        "OBJECT_NAME": "SL-14 R/B",
        "OBJECT_ID": "1986-055B",
        "EPOCH": "2026-04-16T11:06:49.312800",
        "MEAN_MOTION": 14.85676562,
        "ECCENTRICITY": 0.0018202,
        "INCLINATION": 82.5175,
        "RA_OF_ASC_NODE": 91.1569,
        "ARG_OF_PERICENTER": 202.7163,
        "MEAN_ANOMALY": 274.8047,
        "EPHEMERIS_TYPE": 0,
        "CLASSIFICATION_TYPE": "U",
        "NORAD_CAT_ID": 16882,
        "ELEMENT_SET_NO": 999,
        "REV_AT_EPOCH": 12497,
        "BSTAR": 2.9157e-05,
        "MEAN_MOTION_DOT": 2.78e-06,
        "MEAN_MOTION_DDOT": 0
    },
    {
        "OBJECT_NAME": "AJISAI (EGS)",
        "OBJECT_ID": "1986-061A",
        "EPOCH": "2026-04-16T21:15:54.999072",
        "MEAN_MOTION": 12.44515795,
        "ECCENTRICITY": 0.0011401,
        "INCLINATION": 50.0113,
        "RA_OF_ASC_NODE": 335.8967,
        "ARG_OF_PERICENTER": 25.1188,
        "MEAN_ANOMALY": 155.2277,
        "EPHEMERIS_TYPE": 0,
        "CLASSIFICATION_TYPE": "U",
        "NORAD_CAT_ID": 16908,
        "ELEMENT_SET_NO": 999,
        "REV_AT_EPOCH": 47275,
        "BSTAR": 8.3537e-05,
        "MEAN_MOTION_DOT": -8.6e-07,
        "MEAN_MOTION_DDOT": 0
    }
]