SL-3 R/B                
1 13819U 83010B   26106.85848803  .00008002  00000+0  15434-3 0  9992
2 13819  81.1012 315.4052 0015009 274.5205  85.4326 15.47539239363847
SL-3 R/B                
1 14208U 83075B   26106.79147285  .00006779  00000+0  17456-3 0  9990
2 14208  97.6128 112.8390 0023254  93.5885 266.8019 15.39300106336011
COSMOS 1536             
1 14699U 84013A   26106.60281247  .00003815  00000+0  15408-3 0  9997
2 14699  82.5435  70.1378 0015489 142.5523 217.6796 15.24345804278396
SL-14 R/B               
1 14820U 84027B   26106.73829905  .00000272  00000+0  28293-4 0  9992
2 14820  82.5441 209.3318 0017378 202.9423 157.1019 14.86016501253281
SL-8 R/B                
1 15483U 85006B   26106.58659772  .00000122  00000+0  49112-4 0  9999
2 15483  74.0463 191.4157 0017212  96.9115   6.2774 14.37808052159479
SL-12 R/B(2)            
1 15772U 85042D   26106.49148075  .00000049  00000+0  43352-4 0  9997
2 15772  71.1105   7.8648 0033133  65.4156 107.1999 14.21993166119764
SL-14 R/B               
1 15945U 85069B   26106.17292179  .00000259  00000+0  26409-4 0  9995
2 15945  82.5290 349.6967 0020272  69.8909 290.4487 14.86471441178404
SL-16 R/B               
1 16182U 85097B   26106.64494056  .00000165  00000+0  10659-3 0  9995
2 16182  71.0032  60.6425 0008552 213.3013 319.1399 14.16606259 92601
SL-14 R/B               
1 16496U 86006B   26106.74595794  .00000507  00000+0  50848-4 0  9991
2 16496  82.5282 223.9186 0077370 145.6531 214.9724 14.86880636154868
COSMOS 1743             
1 16719U 86034A   26106.22627644  .00029880  00000+0  34277-3 0  9995
2 16719  82.5316  34.3377 0007061 125.2745 234.9174 15.61886544186102
SL-14 R/B               
1 16792U 86046B   26106.79509243  .00000272  00000+0  28413-4 0  9995
2 16792  82.4836  44.1747 0024677 101.2581 259.1411 14.85628011132060
SL-14 R/B               
1 16882U 86055B   26106.46307075  .00000278  00000+0  29157-4 0  9990
2 16882  82.5175  91.1569 0018202 202.7163 274.8047 14.85676562124975
AJISAI (EGS)            
1 16908U 86061A   26106.88605323 -.00000086  00000+0  83537-4 0  9999
2 16908  50.0113 335.8967 0011401  25.1188 155.2277 12.44515795472756
